ATLAS CENTAUR R/B       
1 06155U 72065B   25349.36291136  .00001148  00000+0  16062-3 0  9992
2 06155  35.0017  79.8307 0033628  19.7525 340.4471 14.77417612828786
SL-8 R/B                
1 08459U 75112B   25349.26523726  .00000292  00000+0  10493-3 0  9990
2 08459  74.0588 174.2127 0016631 285.3529  74.5787 14.38146427619739
SL-3 R/B                
1 10114U 77057B   25349.35011975  .00009474  00000+0  21679-3 0  9998
2 10114  97.5680 152.7796 0006608 221.9681 138.1061 15.43012312655312
SEASAT 1                
1 10967U 78064A   25348.82677137  .00000426  00000+0  15782-3 0  9998
2 10967 108.0118 307.4125 0001574 250.9628 109.1347 14.46064006494244
SL-14 R/B               
1 11267U 79011B   25349.26985067  .00000619  00000+0  58830-4 0  9994
2 11267  82.5233 176.6447 0015678 344.8986  15.1763 14.91772542516193
SL-8 R/B                
1 11574U 79089B   25349.19461244  .00000294  00000+0  97059-4 0  9993
2 11574  74.0689 247.4358 0014499  80.7723 279.5072 14.42285474423924
SL-14 R/B               
1 11672U 80005B   25349.36173545  .00000601  00000+0  58388-4 0  9999
2 11672  82.5147  27.2126 0017373  85.5303 274.7900 14.90794710463926
SL-8 R/B                
1 12139U 81003B   25349.32714172  .00011200  00000+0  29593-3 0  9992
2 12139  82.9305   7.8225 0279267 111.3158 251.8129 15.07117676301959
SL-3 R/B                
1 12465U 81046B   25349.29403526  .00007955  00000+0  19968-3 0  9992
2 12465  81.2333  30.8827 0018652 315.1899  44.7835 15.39662977425430
SL-3 R/B                
1 12904U 81103B   25349.35862371  .00004529  00000+0  20722-3 0  9992
2 12904  81.1589 312.2865 0011900 203.6852 156.3833 15.20267457960412
SL-3 R/B                
1 13068U 82013B   25349.27471887  .00003400  00000+0  15051-3 0  9990
2 13068  81.1751 259.6420 0024089 102.6954 257.6973 15.21110746391517
SL-3 R/B                
1 13154U 82039B   25349.35702645  .00002553  00000+0  15617-3 0  9998
2 13154  81.1713 313.0861 0029557 243.4455 116.3740 15.09542258368914
