CCSDS_OMM_VERS = 2.0
CREATION_DATE  = 
ORIGINATOR     = 

OBJECT_NAME    = ATLAS CENTAUR R/B
OBJECT_ID      = 1972-065B
CENTER_NAME    = EARTH
REF_FRAME      = TEME
TIME_SYSTEM    = UTC
MEAN_ELEMENT_THEORY = SGP/SGP4

EPOCH          = 2025-12-15T08:42:35.541504
MEAN_MOTION    = 14.77417612
ECCENTRICITY   = .00336283
INCLINATION    = 35.0017
RA_OF_ASC_NODE = 79.8307
ARG_OF_PERICENTER = 19.7525
MEAN_ANOMALY   = 340.4471

EPHEMERIS_TYPE = 0
CLASSIFICATION_TYPE = U
NORAD_CAT_ID   = 6155
ELEMENT_SET_NO = 999
REV_AT_EPOCH   = 82878
BSTAR          = .16062212E-3
MEAN_MOTION_DOT = .1148E-4
MEAN_MOTION_DDOT = 0

CCSDS_OMM_VERS = 2.0
CREATION_DATE  = 
ORIGINATOR     = 

OBJECT_NAME    = SL-8 R/B
OBJECT_ID      = 1975-112B
CENTER_NAME    = EARTH
REF_FRAME      = TEME
TIME_SYSTEM    = UTC
MEAN_ELEMENT_THEORY = SGP/SGP4

EPOCH          = 2025-12-15T06:21:56.499264
MEAN_MOTION    = 14.38146427
ECCENTRICITY   = .00166311
INCLINATION    = 74.0588
RA_OF_ASC_NODE = 174.2127
ARG_OF_PERICENTER = 285.3529
MEAN_ANOMALY   = 74.5787

EPHEMERIS_TYPE = 0
CLASSIFICATION_TYPE = U
NORAD_CAT_ID   = 8459
ELEMENT_SET_NO = 999
REV_AT_EPOCH   = 61973
BSTAR          = .10492711E-3
MEAN_MOTION_DOT = .292E-5
MEAN_MOTION_DDOT = 0

CCSDS_OMM_VERS = 2.0
CREATION_DATE  = 
ORIGINATOR     = 

OBJECT_NAME    = SL-3 R/B
OBJECT_ID      = 1977-057B
CENTER_NAME    = EARTH
REF_FRAME      = TEME
TIME_SYSTEM    = UTC
MEAN_ELEMENT_THEORY = SGP/SGP4

EPOCH          = 2025-12-15T08:24:10.346400
MEAN_MOTION    = 15.43012312
ECCENTRICITY   = .00066084
INCLINATION    = 97.5680
RA_OF_ASC_NODE = 152.7796
ARG_OF_PERICENTER = 221.9681
MEAN_ANOMALY   = 138.1061

EPHEMERIS_TYPE = 0
CLASSIFICATION_TYPE = U
NORAD_CAT_ID   = 10114
ELEMENT_SET_NO = 999
REV_AT_EPOCH   = 65531
BSTAR          = .21678751E-3
MEAN_MOTION_DOT = .9474E-4
MEAN_MOTION_DDOT = 0

CCSDS_OMM_VERS = 2.0
CREATION_DATE  = 
ORIGINATOR     = 

OBJECT_NAME    = SEASAT 1
OBJECT_ID      = 1978-064A
CENTER_NAME    = EARTH
REF_FRAME      = TEME
TIME_SYSTEM    = UTC
MEAN_ELEMENT_THEORY = SGP/SGP4

EPOCH          = 2025-12-14T19:50:33.046368
MEAN_MOTION    = 14.46064006
ECCENTRICITY   = .0001574
INCLINATION    = 108.0118
RA_OF_ASC_NODE = 307.4125
ARG_OF_PERICENTER = 250.9628
MEAN_ANOMALY   = 109.1347

EPHEMERIS_TYPE = 0
CLASSIFICATION_TYPE = U
NORAD_CAT_ID   = 10967
ELEMENT_SET_NO = 999
REV_AT_EPOCH   = 49424
BSTAR          = .15782072E-3
MEAN_MOTION_DOT = .426E-5
MEAN_MOTION_DDOT = 0

CCSDS_OMM_VERS = 2.0
CREATION_DATE  = 
ORIGINATOR     = 

OBJECT_NAME    = SL-14 R/B
OBJECT_ID      = 1979-011B
CENTER_NAME    = EARTH
REF_FRAME      = TEME
TIME_SYSTEM    = UTC
MEAN_ELEMENT_THEORY = SGP/SGP4

EPOCH          = 2025-12-15T06:28:35.097888
MEAN_MOTION    = 14.91772542
ECCENTRICITY   = .00156785
INCLINATION    = 82.5233
RA_OF_ASC_NODE = 176.6447
ARG_OF_PERICENTER = 344.8986
MEAN_ANOMALY   = 15.1763

EPHEMERIS_TYPE = 0
CLASSIFICATION_TYPE = U
NORAD_CAT_ID   = 11267
ELEMENT_SET_NO = 999
REV_AT_EPOCH   = 51619
BSTAR          = .58830063E-4
MEAN_MOTION_DOT = .619E-5
MEAN_MOTION_DDOT = 0

CCSDS_OMM_VERS = 2.0
CREATION_DATE  = 
ORIGINATOR     = 

OBJECT_NAME    = SL-8 R/B
OBJECT_ID      = 1979-089B
CENTER_NAME    = EARTH
REF_FRAME      = TEME
TIME_SYSTEM    = UTC
MEAN_ELEMENT_THEORY = SGP/SGP4

EPOCH          = 2025-12-15T04:40:14.514816
MEAN_MOTION    = 14.42285474
ECCENTRICITY   = .00144995
INCLINATION    = 74.0689
RA_OF_ASC_NODE = 247.4358
ARG_OF_PERICENTER = 80.7723
MEAN_ANOMALY   = 279.5072

EPHEMERIS_TYPE = 0
CLASSIFICATION_TYPE = U
NORAD_CAT_ID   = 11574
ELEMENT_SET_NO = 999
REV_AT_EPOCH   = 42392
BSTAR          = .97058832E-4
MEAN_MOTION_DOT = .294E-5
MEAN_MOTION_DDOT = 0

CCSDS_OMM_VERS = 2.0
CREATION_DATE  = 
ORIGINATOR     = 

OBJECT_NAME    = SL-14 R/B
OBJECT_ID      = 1980-005B
CENTER_NAME    = EARTH
REF_FRAME      = TEME
TIME_SYSTEM    = UTC
MEAN_ELEMENT_THEORY = SGP/SGP4

EPOCH          = 2025-12-15T08:40:53.942880
MEAN_MOTION    = 14.90794710
ECCENTRICITY   = .00173731
INCLINATION    = 82.5147
RA_OF_ASC_NODE = 27.2126
ARG_OF_PERICENTER = 85.5303
MEAN_ANOMALY   = 274.7900

EPHEMERIS_TYPE = 0
CLASSIFICATION_TYPE = U
NORAD_CAT_ID   = 11672
ELEMENT_SET_NO = 999
REV_AT_EPOCH   = 46392
BSTAR          = .58388439E-4
MEAN_MOTION_DOT = .601E-5
MEAN_MOTION_DDOT = 0

CCSDS_OMM_VERS = 2.0
CREATION_DATE  = 
ORIGINATOR     = 

OBJECT_NAME    = SL-8 R/B
OBJECT_ID      = 1981-003B
CENTER_NAME    = EARTH
REF_FRAME      = TEME
TIME_SYSTEM    = UTC
MEAN_ELEMENT_THEORY = SGP/SGP4

EPOCH          = 2025-12-15T07:51:05.044608
MEAN_MOTION    = 15.07117676
ECCENTRICITY   = .02792678
INCLINATION    = 82.9305
RA_OF_ASC_NODE = 7.8225
ARG_OF_PERICENTER = 111.3158
MEAN_ANOMALY   = 251.8129

EPHEMERIS_TYPE = 0
CLASSIFICATION_TYPE = U
NORAD_CAT_ID   = 12139
ELEMENT_SET_NO = 999
REV_AT_EPOCH   = 30195
BSTAR          = .29593206E-3
MEAN_MOTION_DOT = .112E-3
MEAN_MOTION_DDOT = 0

CCSDS_OMM_VERS = 2.0
CREATION_DATE  = 
ORIGINATOR     = 

OBJECT_NAME    = SL-3 R/B
OBJECT_ID      = 1981-046B
CENTER_NAME    = EARTH
REF_FRAME      = TEME
TIME_SYSTEM    = UTC
MEAN_ELEMENT_THEORY = SGP/SGP4

EPOCH          = 2025-12-15T07:03:24.646464
MEAN_MOTION    = 15.39662977
ECCENTRICITY   = .00186523
INCLINATION    = 81.2333
RA_OF_ASC_NODE = 30.8827
ARG_OF_PERICENTER = 315.1899
MEAN_ANOMALY   = 44.7835

EPHEMERIS_TYPE = 0
CLASSIFICATION_TYPE = U
NORAD_CAT_ID   = 12465
ELEMENT_SET_NO = 999
REV_AT_EPOCH   = 42543
BSTAR          = .19968188E-3
MEAN_MOTION_DOT = .7955E-4
MEAN_MOTION_DDOT = 0

CCSDS_OMM_VERS = 2.0
CREATION_DATE  = 
ORIGINATOR     = 

OBJECT_NAME    = SL-3 R/B
OBJECT_ID      = 1981-103B
CENTER_NAME    = EARTH
REF_FRAME      = TEME
TIME_SYSTEM    = UTC
MEAN_ELEMENT_THEORY = SGP/SGP4

EPOCH          = 2025-12-15T08:36:25.088544
MEAN_MOTION    = 15.20267457
ECCENTRICITY   = .00119007
INCLINATION    = 81.1589
RA_OF_ASC_NODE = 312.2865
ARG_OF_PERICENTER = 203.6852
MEAN_ANOMALY   = 156.3833

EPHEMERIS_TYPE = 0
CLASSIFICATION_TYPE = U
NORAD_CAT_ID   = 12904
ELEMENT_SET_NO = 999
REV_AT_EPOCH   = 96041
BSTAR          = .20721779E-3
MEAN_MOTION_DOT = .4529E-4
MEAN_MOTION_DDOT = 0

CCSDS_OMM_VERS = 2.0
CREATION_DATE  = 
ORIGINATOR     = 

OBJECT_NAME    = SL-3 R/B
OBJECT_ID      = 1982-013B
CENTER_NAME    = EARTH
REF_FRAME      = TEME
TIME_SYSTEM    = UTC
MEAN_ELEMENT_THEORY = SGP/SGP4

EPOCH          = 2025-12-15T06:35:35.710368
MEAN_MOTION    = 15.21110746
ECCENTRICITY   = .00240899
INCLINATION    = 81.1751
RA_OF_ASC_NODE = 259.6420
ARG_OF_PERICENTER = 102.6954
MEAN_ANOMALY   = 257.6973

EPHEMERIS_TYPE = 0
CLASSIFICATION_TYPE = U
NORAD_CAT_ID   = 13068
ELEMENT_SET_NO = 999
REV_AT_EPOCH   = 39151
BSTAR          = .15051394E-3
MEAN_MOTION_DOT = .34E-4
MEAN_MOTION_DDOT = 0

CCSDS_OMM_VERS = 2.0
CREATION_DATE  = 
ORIGINATOR     = 

OBJECT_NAME    = SL-3 R/B
OBJECT_ID      = 1982-039B
CENTER_NAME    = EARTH
REF_FRAME      = TEME
TIME_SYSTEM    = UTC
MEAN_ELEMENT_THEORY = SGP/SGP4

EPOCH          = 2025-12-15T08:34:07.085280
MEAN_MOTION    = 15.09542258
ECCENTRICITY   = .00295574
INCLINATION    = 81.1713
RA_OF_ASC_NODE = 313.0861
ARG_OF_PERICENTER = 243.4455
MEAN_ANOMALY   = 116.3740

EPHEMERIS_TYPE = 0
CLASSIFICATION_TYPE = U
NORAD_CAT_ID   = 13154
ELEMENT_SET_NO = 999
REV_AT_EPOCH   = 36891
BSTAR          = .15617357E-3
MEAN_MOTION_DOT = .2553E-4
MEAN_MOTION_DDOT = 0

